[Satellite]
VERSION=1.1
NAME=IRIDIUM 34 [+]
NICKNAME=IRIDIUM 34 [+]
TLE1=1 24969U 97056E   15055.55769241  .00000429  00000-0  14615-3 0  9997
TLE2=2 24969  86.3978 311.4356 0002037  99.2591 260.8835 14.34216091911614
